start=new Date('2021-11-03T00:00:00.000Z').valueOf();
sats=[{"CLASSIFICATION_TYPE":"U","PERIOD":"95.592","BSTAR":"0.00005617900000","MEAN_MOTION_DOT":"0.00000555","INCLINATION":"53.0523","EPHEMERIS_TYPE":"0","OBJECT_ID":"2020-019BA","OBJECT_NAME":"STARLINK-1278","COUNTRY_CODE":"US","GP_ID":"188773616","FILE":"3198350","CENTER_NAME":"EARTH","REV_AT_EPOCH":"9010","SITE":"AFETR","TLE_LINE1":"1 45408U 20019BA  21306.72304775  .00000555  00000-0  56179-4 0  9997","EPOCH":"2021-11-02T17:21:11.325600","TIME_SYSTEM":"UTC","OBJECT_TYPE":"PAYLOAD","MEAN_ANOMALY":"274.9340","MEAN_ELEMENT_THEORY":"SGP4","TLE_LINE2":"2 45408  53.0523  95.2795 0001625  85.1835 274.9340 15.06397457 90108","MEAN_MOTION_DDOT":"0.0000000000000","LAUNCH_DATE":"2020-03-18","ELEMENT_SET_NO":"999","SEMIMAJOR_AXIS":"6925.356","ECCENTRICITY":"0.00016250","PERIAPSIS":"546.096","MEAN_MOTION":"15.06397457","RA_OF_ASC_NODE":"95.2795","RCS_SIZE":"LARGE","REF_FRAME":"TEME","ARG_OF_PERICENTER":"85.1835","DECAY_DATE":null,"NORAD_CAT_ID":"45408","APOAPSIS":"548.347"},{"MEAN_MOTION":"15.06404828","REF_FRAME":"TEME","ARG_OF_PERICENTER":"96.4603","RCS_SIZE":"LARGE","RA_OF_ASC_NODE":"66.4985","DECAY_DATE":null,"APOAPSIS":"548.114","NORAD_CAT_ID":"45409","TLE_LINE1":"1 45409U 20019BB  21306.45304256  .00001898  00000-0  14628-3 0  9995","OBJECT_TYPE":"PAYLOAD","TIME_SYSTEM":"UTC","EPOCH":"2021-11-02T10:52:22.877184","LAUNCH_DATE":"2020-03-18","MEAN_MOTION_DDOT":"0.0000000000000","TLE_LINE2":"2 45409  53.0555  66.4985 0001322  96.4603 263.6537 15.06404828 90482","MEAN_ELEMENT_THEORY":"SGP4","MEAN_ANOMALY":"263.6537","PERIAPSIS":"546.283","SEMIMAJOR_AXIS":"6925.334","ELEMENT_SET_NO":"999","ECCENTRICITY":"0.00013220","GP_ID":"188736639","CENTER_NAME":"EARTH","REV_AT_EPOCH":"9048","FILE":"3197731","SITE":"AFETR","CLASSIFICATION_TYPE":"U","BSTAR":"0.00014628000000","PERIOD":"95.592","OBJECT_ID":"2020-019BB","OBJECT_NAME":"STARLINK-1282","EPHEMERIS_TYPE":"0","INCLINATION":"53.0555","MEAN_MOTION_DOT":"0.00001898","COUNTRY_CODE":"US"},{"NORAD_CAT_ID":"45410","APOAPSIS":"357.592","DECAY_DATE":null,"RA_OF_ASC_NODE":"10.2514","RCS_SIZE":"LARGE","ARG_OF_PERICENTER":"13.5985","REF_FRAME":"TEME","MEAN_MOTION":"15.71458161","ELEMENT_SET_NO":"999","SEMIMAJOR_AXIS":"6732.866","ECCENTRICITY":"0.00042490","PERIAPSIS":"351.870","TLE_LINE2":"2 45410  53.0579  10.2514 0004249  13.5985 346.5146 15.71458161 91253","MEAN_MOTION_DDOT":"0.0000000000000","MEAN_ELEMENT_THEORY":"SGP4","MEAN_ANOMALY":"346.5146","LAUNCH_DATE":"2020-03-18","TIME_SYSTEM":"UTC","OBJECT_TYPE":"PAYLOAD","EPOCH":"2021-11-02T10:47:39.680448","TLE_LINE1":"1 45410U 20019BC  21306.44976482  .00000132  00000-0  56838-5 0  9993","SITE":"AFETR","FILE":"3197731","CENTER_NAME":"EARTH","REV_AT_EPOCH":"9125","GP_ID":"188735399","COUNTRY_CODE":"US","MEAN_MOTION_DOT":"0.00000132","INCLINATION":"53.0579","OBJECT_NAME":"STARLINK-1285","OBJECT_ID":"2020-019BC","EPHEMERIS_TYPE":"0","PERIOD":"91.635","BSTAR":"0.00000568380000","CLASSIFICATION_TYPE":"U"},{"PERIOD":"95.592","BSTAR":"0.00009764600000","CLASSIFICATION_TYPE":"U","COUNTRY_CODE":"US","INCLINATION":"53.0546","MEAN_MOTION_DOT":"0.00001174","OBJECT_ID":"2020-019BD","OBJECT_NAME":"STARLINK-1293","EPHEMERIS_TYPE":"0","GP_ID":"188773366","SITE":"AFETR","FILE":"3198350","CENTER_NAME":"EARTH","REV_AT_EPOCH":"9052","TIME_SYSTEM":"UTC","OBJECT_TYPE":"PAYLOAD","EPOCH":"2021-11-02T14:24:41.535072","TLE_LINE1":"1 45411U 20019BD  21306.60048073  .00001174  00000-0  97646-4 0  9996","ELEMENT_SET_NO":"999","SEMIMAJOR_AXIS":"6925.331","ECCENTRICITY":"0.00012540","PERIAPSIS":"546.327","TLE_LINE2":"2 45411  53.0546  65.8238 0001254  90.2758 269.8374 15.06405755 90528","MEAN_MOTION_DDOT":"0.0000000000000","MEAN_ELEMENT_THEORY":"SGP4","MEAN_ANOMALY":"269.8374","LAUNCH_DATE":"2020-03-18","RCS_SIZE":"LARGE","RA_OF_ASC_NODE":"65.8238","REF_FRAME":"TEME","ARG_OF_PERICENTER":"90.2758","MEAN_MOTION":"15.06405755","APOAPSIS":"548.064","NORAD_CAT_ID":"45411","DECAY_DATE":null},{"SITE":"AFETR","CENTER_NAME":"EARTH","REV_AT_EPOCH":"9050","FILE":"3198350","GP_ID":"188773117","COUNTRY_CODE":"US","OBJECT_NAME":"STARLINK-1296","OBJECT_ID":"2020-019BE","EPHEMERIS_TYPE":"0","INCLINATION":"53.0564","MEAN_MOTION_DOT":"0.00000013","BSTAR":"0.00001980300000","PERIOD":"95.593","CLASSIFICATION_TYPE":"U","APOAPSIS":"548.212","NORAD_CAT_ID":"45412","DECAY_DATE":null,"ARG_OF_PERICENTER":"83.8648","REF_FRAME":"TEME","RA_OF_ASC_NODE":"65.6858","RCS_SIZE":"LARGE","MEAN_MOTION":"15.06392815","PERIAPSIS":"546.259","SEMIMAJOR_AXIS":"6925.371","ECCENTRICITY":"0.00014100","ELEMENT_SET_NO":"999","LAUNCH_DATE":"2020-03-18","TLE_LINE2":"2 45412  53.0564  65.6858 0001410  83.8648 276.2501 15.06392815 90509","MEAN_MOTION_DDOT":"0.0000000000000","MEAN_ANOMALY":"276.2501","MEAN_ELEMENT_THEORY":"SGP4","OBJECT_TYPE":"PAYLOAD","TIME_SYSTEM":"UTC","EPOCH":"2021-11-02T15:12:28.748448","TLE_LINE1":"1 45412U 20019BE  21306.63366607  .00000013  00000-0  19803-4 0  9996"},{"GP_ID":"188772365","FILE":"3198350","REV_AT_EPOCH":"9059","CENTER_NAME":"EARTH","SITE":"AFETR","CLASSIFICATION_TYPE":"U","PERIOD":"95.592","BSTAR":"0.00011935000000","MEAN_MOTION_DOT":"0.00001497","INCLINATION":"53.0559","EPHEMERIS_TYPE":"0","OBJECT_NAME":"STARLINK-1298","OBJECT_ID":"2020-019BF","COUNTRY_CODE":"US","MEAN_MOTION":"15.06396788","RA_OF_ASC_NODE":"65.8568","RCS_SIZE":"LARGE","REF_FRAME":"TEME","ARG_OF_PERICENTER":"88.2051","DECAY_DATE":null,"APOAPSIS":"548.178","NORAD_CAT_ID":"45413","TLE_LINE1":"1 45413U 20019BF  21306.59681239  .00001497  00000-0  11935-3 0  9997","EPOCH":"2021-11-02T14:19:24.590496","TIME_SYSTEM":"UTC","OBJECT_TYPE":"PAYLOAD","MEAN_ELEMENT_THEORY":"SGP4","MEAN_ANOMALY":"271.9096","MEAN_MOTION_DDOT":"0.0000000000000","TLE_LINE2":"2 45413  53.0559  65.8568 0001379  88.2051 271.9096 15.06396788 90598","LAUNCH_DATE":"2020-03-18","SEMIMAJOR_AXIS":"6925.358","ECCENTRICITY":"0.00013790","ELEMENT_SET_NO":"999","PERIAPSIS":"546.268"},{"PERIOD":"95.592","BSTAR":"0.00028318000000","CLASSIFICATION_TYPE":"U","COUNTRY_CODE":"US","INCLINATION":"53.0550","MEAN_MOTION_DOT":"0.00003940","EPHEMERIS_TYPE":"0","OBJECT_ID":"2020-019BG","OBJECT_NAME":"STARLINK-1309","GP_ID":"188772615","SITE":"AFETR","FILE":"3198350","REV_AT_EPOCH":"9049","CENTER_NAME":"EARTH","EPOCH":"2021-11-02T15:33:41.819616","OBJECT_TYPE":"PAYLOAD","TIME_SYSTEM":"UTC","TLE_LINE1":"1 45414U 20019BG  21306.64840069  .00003940  00000-0  28318-3 0  9990","SEMIMAJOR_AXIS":"6925.329","ELEMENT_SET_NO":"999","ECCENTRICITY":"0.00011810","PERIAPSIS":"546.376","MEAN_ANOMALY":"276.1066","MEAN_ELEMENT_THEORY":"SGP4","MEAN_MOTION_DDOT":"0.0000000000000","TLE_LINE2":"2 45414  53.0550  65.6240 0001181  84.0058 276.1066 15.06406324 90498","LAUNCH_DATE":"2020-03-18","RA_OF_ASC_NODE":"65.6240","RCS_SIZE":"LARGE","ARG_OF_PERICENTER":"84.0058","REF_FRAME":"TEME","MEAN_MOTION":"15.06406324","APOAPSIS":"548.012","NORAD_CAT_ID":"45414","DECAY_DATE":null},{"APOAPSIS":"548.099","NORAD_CAT_ID":"45415","DECAY_DATE":null,"ARG_OF_PERICENTER":"76.2068","REF_FRAME":"TEME","RCS_SIZE":"LARGE","RA_OF_ASC_NODE":"65.4948","MEAN_MOTION":"15.06393254","PERIAPSIS":"546.369","SEMIMAJOR_AXIS":"6925.369","ELEMENT_SET_NO":"999","ECCENTRICITY":"0.00012490","LAUNCH_DATE":"2020-03-18","MEAN_ELEMENT_THEORY":"SGP4","MEAN_ANOMALY":"283.9060","MEAN_MOTION_DDOT":"0.0000000000000","TLE_LINE2":"2 45415  53.0525  65.4948 0001249  76.2068 283.9060 15.06393254 90535","EPOCH":"2021-11-02T16:10:51.509856","TIME_SYSTEM":"UTC","OBJECT_TYPE":"PAYLOAD","TLE_LINE1":"1 45415U 20019BH  21306.67420729 -.00001597  00000-0 -88394-4 0  9990","SITE":"AFETR","CENTER_NAME":"EARTH","REV_AT_EPOCH":"9053","FILE":"3198350","GP_ID":"188772867","COUNTRY_CODE":"US","EPHEMERIS_TYPE":"0","OBJECT_NAME":"STARLINK-1316","OBJECT_ID":"2020-019BH","INCLINATION":"53.0525","MEAN_MOTION_DOT":"-0.00001597","BSTAR":"-0.00008839400000","PERIOD":"95.593","CLASSIFICATION_TYPE":"U"},{"GP_ID":"188773617","SITE":"AFETR","FILE":"3198350","CENTER_NAME":"EARTH","REV_AT_EPOCH":"9051","PERIOD":"95.593","BSTAR":"0.00000312610000","CLASSIFICATION_TYPE":"U","COUNTRY_CODE":"US","MEAN_MOTION_DOT":"-0.00000235","INCLINATION":"53.0559","EPHEMERIS_TYPE":"0","OBJECT_NAME":"STARLINK-1318","OBJECT_ID":"2020-019BJ","RA_OF_ASC_NODE":"65.6523","RCS_SIZE":"LARGE","REF_FRAME":"TEME","ARG_OF_PERICENTER":"81.5354","MEAN_MOTION":"15.06393824","NORAD_CAT_ID":"45416","APOAPSIS":"548.171","DECAY_DATE":null,"EPOCH":"2021-11-02T15:23:05.739360","OBJECT_TYPE":"PAYLOAD","TIME_SYSTEM":"UTC","TLE_LINE1":"1 45416U 20019BJ  21306.64103865 -.00000235  00000-0  31261-5 0  9996","SEMIMAJOR_AXIS":"6925.367","ECCENTRICITY":"0.00013550","ELEMENT_SET_NO":"999","PERIAPSIS":"546.294","MEAN_ELEMENT_THEORY":"SGP4","MEAN_ANOMALY":"278.5788","MEAN_MOTION_DDOT":"0.0000000000000","TLE_LINE2":"2 45416  53.0559  65.6523 0001355  81.5354 278.5788 15.06393824 90517","LAUNCH_DATE":"2020-03-18"},{"BSTAR":"0.00005706500000","PERIOD":"95.592","CLASSIFICATION_TYPE":"U","COUNTRY_CODE":"US","EPHEMERIS_TYPE":"0","OBJECT_ID":"2020-019BK","OBJECT_NAME":"STARLINK-1286","INCLINATION":"53.0555","MEAN_MOTION_DOT":"0.00000568","GP_ID":"188771866","SITE":"AFETR","CENTER_NAME":"EARTH","REV_AT_EPOCH":"9037","FILE":"3198350","EPOCH":"2021-11-02T17:05:16.543392","TIME_SYSTEM":"UTC","OBJECT_TYPE":"PAYLOAD","TLE_LINE1":"1 45417U 20019BK  21306.71199703  .00000568  00000-0  57065-4 0  9998","PERIAPSIS":"545.983","SEMIMAJOR_AXIS":"6925.357","ECCENTRICITY":"0.00017890","ELEMENT_SET_NO":"999","LAUNCH_DATE":"2020-03-18","MEAN_ANOMALY":"268.3516","MEAN_ELEMENT_THEORY":"SGP4","TLE_LINE2":"2 45417  53.0555  95.3377 0001789  91.7678 268.3516 15.06397383 90378","MEAN_MOTION_DDOT":"0.0000000000000","REF_FRAME":"TEME","ARG_OF_PERICENTER":"91.7678","RA_OF_ASC_NODE":"95.3377","RCS_SIZE":"LARGE","MEAN_MOTION":"15.06397383","APOAPSIS":"548.461","NORAD_CAT_ID":"45417","DECAY_DATE":null}];
